{
"type": "FeatureCollection",
"name": "goyders_line_4326",
"crs": { "type": "name", "properties": { "name": "urn:ogc:def:crs:OGC:1.3:CRS84" } },
"features": [
{ "type": "Feature", "properties": { "OBJECTID": 1 }, "geometry": { "type": "LineString", "coordinates": [ [ 133.937641222540805, -31.978112587290834 ], [ 133.968580426518656, -31.998398584080824 ], [ 134.030458226531437, -32.041243746634805 ], [ 134.053673751816973, -32.062257192794419 ], [ 134.116859555916164, -32.112257909469783 ], [ 134.165090912785217, -32.152549630287304 ], [ 134.194109999326798, -32.173038813444037 ], [ 134.217806420214089, -32.189432816657408 ], [ 134.270125073296128, -32.232894352628684 ], [ 134.299746248870491, -32.261409108386474 ], [ 134.322450302767663, -32.279206273737628 ], [ 134.357973023105416, -32.29916087910528 ], [ 134.418424484712915, -32.326284215414347 ], [ 134.47850035320036, -32.358831015283357 ], [ 134.648547902821093, -32.451027914310536 ], [ 134.68624234975448, -32.470621569698707 ], [ 134.718873071780934, -32.490160103639354 ], [ 134.749875654021281, -32.504792286038537 ], [ 134.808633535986417, -32.522520814854808 ], [ 134.84951526891814, -32.534050702115984 ], [ 134.895760196814336, -32.553362428353566 ], [ 134.937313071723054, -32.568602212573751 ], [ 134.967732912389522, -32.578869354360954 ], [ 134.994389761788796, -32.594560363832684 ], [ 135.038264136969559, -32.621844531101182 ], [ 135.078414852687928, -32.651962525038364 ], [ 135.115877318606351, -32.682050718320603 ], [ 135.156096710915961, -32.709271518744657 ], [ 135.202713152990214, -32.751157843425155 ], [ 135.279156690579157, -32.817284220747609 ], [ 135.357394393657529, -32.887676413218095 ], [ 135.413363924186399, -32.934398380792423 ], [ 135.483662105418517, -32.992909250060563 ], [ 135.533633405289834, -33.03754909442813 ], [ 135.608526184047548, -33.089683407696697 ], [ 135.656913957501303, -33.119627554130901 ], [ 135.722391779592073, -33.169956232230732 ], [ 135.783852698393503, -33.225701808334165 ], [ 135.844695304547514, -33.275962810011968 ], [ 135.904230065540219, -33.322174110188215 ], [ 135.999816681699258, -33.39616746837951 ], [ 136.049562458173881, -33.43629211990028 ], [ 136.070159389962754, -33.452622048890703 ], [ 136.115824090564956, -33.484975694093912 ], [ 136.169792646713546, -33.527340566916699 ], [ 136.208618249219541, -33.549055960588625 ], [ 136.298385121936434, -33.601881451939029 ], [ 136.498636219840733, -33.686575483035853 ], [ 136.598886574407089, -33.727082800763625 ], [ 136.690894979460325, -33.759529178739363 ], [ 136.804757747630703, -33.80380525876263 ] ] } },
{ "type": "Feature", "properties": { "OBJECTID": 2 }, "geometry": { "type": "LineString", "coordinates": [ [ 137.431220741936642, -34.155353844283674 ], [ 137.431910454814926, -34.155344323872221 ], [ 137.439872959690263, -34.156668562543082 ], [ 137.449560052609513, -34.157968845868339 ], [ 137.466821541235589, -34.15858962087713 ], [ 137.480629408992513, -34.158971480071088 ], [ 137.499915585557972, -34.157555119424266 ], [ 137.517099991500743, -34.154732427307096 ], [ 137.536326794537445, -34.150732770204527 ], [ 137.555896731811686, -34.146725708022757 ], [ 137.573402941391748, -34.1430320648643 ], [ 137.593631425016923, -34.137863435341856 ], [ 137.613188976474419, -34.133560969556036 ], [ 137.634800440319196, -34.128651594979765 ], [ 137.648148937702246, -34.124438013683999 ], [ 137.665963068898208, -34.119580351298126 ], [ 137.68654724555023, -34.115251232064892 ], [ 137.698210059833542, -34.112776908520019 ], [ 137.717060511721911, -34.108183017631198 ], [ 137.736907512274314, -34.102138032367002 ], [ 137.766550930061072, -34.08819693186085 ], [ 137.7873423605553, -34.078976525775033 ], [ 137.814258735531183, -34.066786440997646 ], [ 137.835775447937635, -34.059265421962508 ], [ 137.858087162676554, -34.042845484490279 ], [ 137.876972036901748, -34.027338808764789 ], [ 137.897654221079421, -34.014950019687966 ], [ 137.919048865948554, -33.990797071873764 ], [ 137.933515551639829, -33.978223209459642 ], [ 137.942916816395154, -33.969462614566837 ], [ 137.955930763549702, -33.954332408031739 ], [ 137.970275853361585, -33.937744728844478 ], [ 137.981631410289282, -33.925220096449799 ], [ 137.992936152421521, -33.910975238241257 ], [ 138.002181197585088, -33.897053659063495 ], [ 138.012808039022332, -33.883392772316256 ], [ 138.023015034212619, -33.867159626098079 ], [ 138.027003155559782, -33.862215070588327 ], [ 138.037924341500741, -33.847113570624124 ], [ 138.047484093420422, -33.832607738467722 ], [ 138.057687397835906, -33.816657986428645 ], [ 138.06596485705569, -33.805614621042949 ], [ 138.075752406325194, -33.787376329716416 ], [ 138.083567494717983, -33.772327778535001 ], [ 138.09858411563269, -33.745104729395621 ], [ 138.106716553850589, -33.729474933679739 ], [ 138.113694264855553, -33.709566974196363 ], [ 138.119152039073242, -33.696565841656927 ], [ 138.123336102847674, -33.687026070582675 ], [ 138.130097092080803, -33.671706151269142 ], [ 138.136611878925606, -33.648079020213622 ], [ 138.141485425645953, -33.627061257322644 ], [ 138.144493219116214, -33.612671622760544 ], [ 138.149388968280533, -33.592513345975263 ], [ 138.151717798039726, -33.578423335433527 ], [ 138.154746958813405, -33.564892209577884 ], [ 138.157743298757765, -33.550214918514747 ], [ 138.163007130400047, -33.531194088317683 ], [ 138.172919310232345, -33.507210249639272 ], [ 138.176699202344508, -33.484490519605998 ], [ 138.177106402722671, -33.463556254621828 ], [ 138.176597547582475, -33.446366198287805 ], [ 138.179347852645776, -33.423665190526215 ], [ 138.181386797097332, -33.400118166792097 ], [ 138.181533700744495, -33.393521393978865 ], [ 138.183981597411787, -33.372259790437091 ], [ 138.184471027023335, -33.35418876219542 ], [ 138.180640303100688, -33.328748517244485 ], [ 138.175904578719781, -33.307339296996354 ], [ 138.169123414113727, -33.28596886891831 ], [ 138.164619449289034, -33.272294890209224 ], [ 138.159069431861383, -33.257780801634325 ], [ 138.154252907982396, -33.244972826818831 ], [ 138.154211170435616, -33.243539856544331 ], [ 138.150894224760862, -33.223535032475148 ], [ 138.144573919974164, -33.205881649577194 ], [ 138.140452413584683, -33.181590435477432 ], [ 138.138911811975191, -33.163844397239181 ], [ 138.137746876304789, -33.147237162728707 ], [ 138.133638206255426, -33.134988069078979 ], [ 138.129604655881081, -33.125316939969075 ], [ 138.127560238913844, -33.11360033888932 ], [ 138.124444218331035, -33.100185225922921 ], [ 138.122075870252445, -33.089048144255315 ], [ 138.118296941315919, -33.076217340535678 ], [ 138.113812334431913, -33.062540100793072 ], [ 138.111521101046094, -33.053981989182653 ], [ 138.109155581106535, -33.042845542133129 ], [ 138.103262541899397, -33.0274739712982 ], [ 138.097777977690356, -33.014388625284276 ], [ 138.093380860179622, -33.003576591287761 ], [ 138.086295000495511, -32.993961556119068 ], [ 138.079251039487502, -32.985778134099434 ], [ 138.073179438394277, -32.975856580371087 ], [ 138.070853977684664, -32.965865337049024 ], [ 138.069881795274455, -32.955561321056258 ], [ 138.064066169017167, -32.942480003946073 ], [ 138.061060823285203, -32.932500223248816 ], [ 138.058065763044596, -32.922807150921088 ], [ 138.055443180811636, -32.914253358242924 ], [ 138.053768339528432, -32.903102355383112 ], [ 138.053002315216077, -32.887918609513349 ], [ 138.054681139085716, -32.874984284009692 ], [ 138.05879423555217, -32.864011352398769 ], [ 138.067251524207137, -32.850375377272151 ], [ 138.076848134365832, -32.841019675031141 ], [ 138.090505093498422, -32.831012465737196 ], [ 138.099879531522447, -32.825959596833812 ], [ 138.107215668033774, -32.820945363293148 ], [ 138.11691233059139, -32.815311452697372 ], [ 138.128248347234148, -32.80763840904811 ], [ 138.139748967826762, -32.805696258694169 ], [ 138.150262876506218, -32.804918924271497 ], [ 138.160793775588644, -32.804713332478968 ], [ 138.175204254851621, -32.809306876714899 ], [ 138.188341355132252, -32.81679126848632 ], [ 138.19336073383144, -32.825581514032393 ], [ 138.200861801466715, -32.837764669918613 ], [ 138.206554501664726, -32.8462538464196 ], [ 138.213974019024505, -32.855569676075788 ], [ 138.220279965021376, -32.861752933055598 ], [ 138.226953082870267, -32.868787890438853 ], [ 138.235325749824199, -32.8757897697025 ], [ 138.247213623930833, -32.886447526114353 ], [ 138.257769522368676, -32.897991427713485 ], [ 138.269322808859073, -32.908653428840729 ], [ 138.276656540438495, -32.914813374623115 ], [ 138.287445185679985, -32.922621438800604 ], [ 138.294102299214956, -32.92879439561225 ], [ 138.300784722642902, -32.935825326073719 ], [ 138.308247065076813, -32.945994775569247 ], [ 138.317377323320983, -32.954982544196589 ], [ 138.327467642329225, -32.96194192025628 ], [ 138.339215231041976, -32.967433253481374 ], [ 138.349881477180816, -32.970937724581034 ], [ 138.361523333542294, -32.972988070014125 ], [ 138.374832838190343, -32.973854187617881 ], [ 138.385023782250414, -32.973064272302821 ], [ 138.407181635286747, -32.963129815702473 ], [ 138.418502121121264, -32.955144749164731 ], [ 138.426437340564405, -32.947805288431063 ], [ 138.434334753352545, -32.939319061646913 ], [ 138.441191263450605, -32.930281546452335 ], [ 138.446372969093744, -32.922139783925438 ], [ 138.454219995733041, -32.912219119414623 ], [ 138.460060544539516, -32.90348922317375 ], [ 138.467707590987203, -32.88754954168661 ], [ 138.473350694833613, -32.872800705693287 ], [ 138.481057397876128, -32.858866837880768 ], [ 138.481936922789799, -32.854545382831724 ], [ 138.490613399413945, -32.83915561768211 ], [ 138.497985831259371, -32.825513256429289 ], [ 138.505110471331022, -32.814744856892666 ], [ 138.510252175128755, -32.80574066191113 ], [ 138.514799548154286, -32.799329774404022 ], [ 138.520627071687954, -32.790596700963832 ], [ 138.525220306552569, -32.785618560491386 ], [ 138.534180211015524, -32.779108860917809 ], [ 138.543563837722502, -32.775169685838961 ], [ 138.548938053334155, -32.773328401706713 ], [ 138.559019233315468, -32.769946313218611 ], [ 138.56878837908269, -32.767430093767224 ], [ 138.575850709883156, -32.765262423365797 ], [ 138.581923861718053, -32.763976664009633 ], [ 138.586667221692608, -32.763581393141592 ], [ 138.591730215297588, -32.762606106636809 ], [ 138.597501942426334, -32.762473174922455 ], [ 138.602584688680139, -32.762070016908645 ], [ 138.610073954583584, -32.762471388316037 ], [ 138.61518668335782, -32.762927130112601 ], [ 138.622365358721368, -32.764195687258272 ], [ 138.629253672662372, -32.766904334370672 ], [ 138.634902521515301, -32.773083227307211 ], [ 138.640671921607321, -32.782699455004199 ], [ 138.645741756284679, -32.791758850047117 ], [ 138.651454053256316, -32.799655714956366 ], [ 138.655506890880218, -32.808739233013064 ], [ 138.658093933446253, -32.814701658453821 ], [ 138.660100803323729, -32.823545086082547 ], [ 138.661646887249503, -32.838708168870333 ], [ 138.663104607062337, -32.85129298933311 ], [ 138.664412651292508, -32.859578613268305 ], [ 138.664880576656174, -32.873047357111979 ], [ 138.665949688473546, -32.884206407512053 ], [ 138.666298340960623, -32.894236448086396 ], [ 138.666568158234838, -32.901972918036876 ], [ 138.667267150015874, -32.912279975009163 ], [ 138.670766201529659, -32.924817208867502 ], [ 138.673097775287118, -32.933078858672339 ], [ 138.678519344119394, -32.942127768048202 ], [ 138.686584296804227, -32.94882162187556 ], [ 138.695660796218391, -32.955203189251208 ], [ 138.705089139131331, -32.961862170514515 ], [ 138.711725658054121, -32.96658031988072 ], [ 138.72303158736824, -32.978069018765417 ], [ 138.731564154743779, -32.988188428129149 ], [ 138.740842035460304, -33.000011570196889 ], [ 138.746956530764123, -33.009041923502899 ], [ 138.753021187027372, -33.01663902760135 ], [ 138.760951896592701, -33.028778224334623 ], [ 138.769175338352426, -33.039477319042639 ], [ 138.77665755786316, -33.048472817870447 ], [ 138.78559623155877, -33.060013371980418 ], [ 138.792316964497331, -33.066732476088298 ], [ 138.800959908424886, -33.079425755865849 ], [ 138.808243783327129, -33.09215313456356 ], [ 138.817242840593934, -33.105122947330813 ], [ 138.822349585147549, -33.114174005173339 ], [ 138.829244710149453, -33.125475091171957 ], [ 138.834034394142492, -33.135107070390177 ], [ 138.837097647907257, -33.144208362522726 ], [ 138.84032034330798, -33.157606738665805 ], [ 138.843823004384802, -33.169277414403453 ], [ 138.847036793348082, -33.182388665475315 ], [ 138.85268253765895, -33.196586517496286 ], [ 138.859139703193875, -33.214204789537241 ], [ 138.864021371010551, -33.226127137457219 ], [ 138.867389823611404, -33.234072191189135 ], [ 138.876369226437703, -33.245892105492203 ], [ 138.888412085792936, -33.257347481620087 ], [ 138.897961376710214, -33.265997488017369 ], [ 138.914160335286596, -33.278780185178405 ], [ 138.927236720469296, -33.29020617883144 ], [ 138.949864099584886, -33.30998885249236 ], [ 138.963996595326364, -33.321958571034919 ], [ 138.974330072453739, -33.332875518532106 ], [ 138.98544930605965, -33.346353307345666 ], [ 138.992757960800333, -33.358494932997274 ], [ 138.997323190420531, -33.37041960037169 ], [ 139.002926353402444, -33.382604515661079 ], [ 139.007174946126497, -33.395110487406669 ], [ 139.011082847530901, -33.407625749118147 ], [ 139.014298419864133, -33.428761022089738 ], [ 139.007969627616035, -33.477381947139179 ], [ 139.00682711857749, -33.500922510567989 ], [ 139.007948284532517, -33.520963516812351 ], [ 139.010803359128772, -33.541533498845183 ], [ 139.010853098225169, -33.560454623798179 ], [ 139.011282454591679, -33.589114152682917 ], [ 139.010888873458754, -33.605466257159456 ], [ 139.010064185453757, -33.619536408563164 ], [ 139.00895326491451, -33.635047083508475 ], [ 139.009678344580152, -33.653663559045704 ], [ 139.011277331571961, -33.677129875458235 ], [ 139.013695149368885, -33.695128279055012 ], [ 139.016788786024392, -33.712822933519853 ], [ 139.018511423347405, -33.730551997267689 ], [ 139.025897471335867, -33.761321860636656 ], [ 139.031988909879999, -33.785243050715223 ], [ 139.03607375920177, -33.801764233217668 ], [ 139.039648433179764, -33.813997167010328 ], [ 139.044345078175638, -33.82849424142119 ], [ 139.048676674147316, -33.84242845874612 ], [ 139.052367137038459, -33.857524844754586 ], [ 139.059665913954177, -33.876826325315974 ], [ 139.069751192441572, -33.896914228105324 ], [ 139.075888845443274, -33.912804870747564 ], [ 139.080149333153201, -33.924731964155811 ], [ 139.087734913000475, -33.942303757253029 ], [ 139.094932756940267, -33.958738200730338 ], [ 139.104691009888114, -33.978830756590824 ], [ 139.112893385788396, -33.994377979705725 ], [ 139.113983094539208, -33.995782778076837 ], [ 139.124977315599864, -34.012113853759452 ], [ 139.135699507639345, -34.030172114675857 ], [ 139.153375364070058, -34.058074304128112 ], [ 139.165452000824502, -34.075232402113038 ], [ 139.175051626758432, -34.090738208371135 ], [ 139.192492792160209, -34.112334704042354 ], [ 139.20778094456648, -34.131695059700021 ], [ 139.225166599445117, -34.159880611899027 ], [ 139.239970741680025, -34.183834700746807 ], [ 139.255339627193905, -34.204620030047856 ], [ 139.269132584641653, -34.22057389415157 ], [ 139.284871860291304, -34.2416313997971 ], [ 139.292960674938797, -34.253155845620618 ], [ 139.300335243681445, -34.264127255676108 ], [ 139.311049719660048, -34.28044935072127 ], [ 139.333122640602198, -34.30361536783883 ], [ 139.34621644853496, -34.31872094977291 ], [ 139.35346901876855, -34.326540502173899 ], [ 139.367334745053483, -34.343341837040562 ], [ 139.380082041087007, -34.358166328638092 ], [ 139.40042607780066, -34.380510095027731 ], [ 139.41390095471732, -34.395884890852983 ], [ 139.430938327783679, -34.413447046787397 ], [ 139.446880794614401, -34.429605255901485 ], [ 139.472919235957988, -34.454637923905608 ], [ 139.487365812071943, -34.467970093046759 ], [ 139.50968325741718, -34.486799298243866 ], [ 139.535060119967596, -34.504101933705975 ], [ 139.550099870701445, -34.514830136342049 ], [ 139.569608239429073, -34.532301348208584 ], [ 139.587635434655368, -34.54751987954068 ], [ 139.610808883276832, -34.561435978754105 ], [ 139.628637599610158, -34.572070277721068 ], [ 139.651131146557077, -34.586000134040987 ], [ 139.668995416711795, -34.59720150144701 ], [ 139.690980153202929, -34.607414448285759 ], [ 139.719702394902214, -34.62056664363017 ], [ 139.75228487055233, -34.634450930685482 ], [ 139.783158721002849, -34.648668890700201 ], [ 139.807400585694836, -34.661942544866491 ], [ 139.866322744474957, -34.688429445760761 ], [ 139.885204747139085, -34.698137528891209 ], [ 139.90912985103779, -34.711403404247889 ], [ 139.930144145128821, -34.721893563112012 ], [ 139.973257557017064, -34.743403252398195 ], [ 140.007644457343275, -34.75688008305945 ], [ 140.03385761436806, -34.766609273835499 ], [ 140.082320430705352, -34.783033716096881 ], [ 140.111369820838405, -34.793511757225303 ], [ 140.150414260133999, -34.808798450068558 ], [ 140.18227275030867, -34.819452135207534 ], [ 140.211314930847578, -34.829335067447261 ], [ 140.236106787747616, -34.837641327630493 ], [ 140.267412995906483, -34.850585240307403 ], [ 140.302988844875244, -34.865089537142239 ], [ 140.329851802649017, -34.872732103427758 ], [ 140.363222154917167, -34.884720365629313 ], [ 140.388327305013632, -34.89184049015217 ], [ 140.415585201392162, -34.900024592044247 ], [ 140.444711857221904, -34.910427422850034 ], [ 140.475123212209184, -34.918771100824578 ], [ 140.503406008050035, -34.926326446549773 ], [ 140.5284462754625, -34.938007664011572 ], [ 140.551874491350588, -34.945732654075769 ], [ 140.590663786644257, -34.960041768142339 ], [ 140.610295279776693, -34.96818501127585 ], [ 140.627793620174003, -34.97554727403061 ], [ 140.649268803109607, -34.98533498602513 ], [ 140.688372606545926, -34.99845598490154 ], [ 140.730797960617821, -35.008573202256919 ], [ 140.767353684573209, -35.019478482031879 ], [ 140.787989116276265, -35.02641209842124 ], [ 140.817273427609024, -35.032142367725619 ], [ 140.854981751746351, -35.038680264353637 ], [ 140.880065384961455, -35.043990318849666 ], [ 140.911415458009174, -35.049045597603573 ], [ 140.971720936648609, -35.054073089097457 ] ] } }
]
}
